OBJECT_NAME,OBJECT_ID,EPOCH,MEAN_MOTION,ECCENTRICITY,INCLINATION,RA_OF_ASC_NODE,ARG_OF_PERICENTER,MEAN_ANOMALY,EPHEMERIS_TYPE,CLASSIFICATION_TYPE,NORAD_CAT_ID,ELEMENT_SET_NO,REV_AT_EPOCH,BSTAR,MEAN_MOTION_DOT,MEAN_MOTION_DDOT
STARLINK-5660,2023-013E,2023-02-02T06:00:00.999648,15.90776164,.002982,42.9997,2.8442,207.1598,97.3741,0,U,55335,999,153,-.23874E-2,-.805708E-2,.20149E-3
STARLINK-5655,2023-013F,2023-02-02T06:00:00.999648,16.00288037,.0017992,42.9995,2.3806,215.9139,274.6831,0,U,55336,999,154,-.13812E-2,-.765165E-2,.20225E-3
STARLINK-5667,2023-013G,2023-02-02T06:00:00.999648,15.94998771,.0043003,42.9976,2.8095,205.4201,112.3976,0,U,55337,999,153,.72E-3,.317457E-2,.47424E-4
STARLINK-5658,2023-013H,2023-02-02T06:00:00.999648,15.90781441,.0029659,42.9998,2.8440,207.0726,97.6427,0,U,55338,999,153,-.23658E-2,-.798337E-2,.19816E-3
STARLINK-5671,2023-013J,2023-02-02T06:00:00.999648,15.90820526,.0029682,42.9997,2.8415,207.1872,98.3860,0,U,55339,999,153,-.2375E-2,-.8031E-2,.20039E-3
STARLINK-5675,2023-013K,2023-02-02T06:00:00.999648,15.90828406,.0029849,42.9998,2.8413,207.0567,98.7414,0,U,55340,999,153,-.23682E-2,-.801516E-2,.19969E-3
STARLINK-5670,2023-013L,2023-02-02T06:00:00.999648,15.90815096,.0029922,42.9998,2.8421,206.8297,98.4962,0,U,55341,999,153,-.23876E-2,-.807636E-2,.20244E-3
STARLINK-5657,2023-013M,2023-02-02T06:00:00.999648,15.90840483,.0029626,42.9997,2.8407,207.1346,98.8345,0,U,55342,999,153,-.23782E-2,-.804885E-2,.20124E-3
STARLINK-5661,2023-013N,2023-02-02T06:00:00.999648,15.90857135,.0030107,42.9997,2.8395,206.9278,99.4230,0,U,55343,999,153,-.23601E-2,-.800566E-2,.19931E-3
STARLINK-5662,2023-013P,2023-02-02T06:00:00.999648,15.90852148,.0029391,42.9997,2.8401,207.2126,98.9694,0,U,55344,999,153,-.23909E-2,-.80912E-2,.20319E-3
STARLINK-5653,2023-013Q,2023-02-02T06:00:00.999648,15.96216534,.0025555,42.9998,2.5735,208.6809,202.9100,0,U,55345,999,153,-.18577E-2,-.830982E-2,.22499E-3
STARLINK-5631,2023-013R,2023-02-02T06:00:00.999648,15.90865203,.0030108,42.9998,2.8388,206.7754,99.9902,0,U,55346,999,153,-.23776E-2,-.806798E-2,.20216E-3
STARLINK-5663,2023-013S,2023-02-02T06:00:00.999648,15.90902320,.0030665,42.9998,2.8368,206.6120,100.8145,0,U,55347,999,153,-.23512E-2,-.800712E-2,.19947E-3
STARLINK-5609,2023-013T,2023-02-02T06:00:00.999648,15.90872949,.0029769,42.9997,2.8383,207.1054,99.7498,0,U,55348,999,153,-.23581E-2,-.799798E-2,.199E-3
STARLINK-5666,2023-013U,2023-02-02T06:00:00.999648,15.90884909,.0030603,42.9999,2.8378,206.7068,100.2916,0,U,55349,999,153,-.23569E-2,-.801768E-2,.19991E-3
STARLINK-5668,2023-013V,2023-02-02T06:00:00.999648,15.90892164,.0029406,42.9997,2.8372,207.1914,100.0595,0,U,55350,999,153,-.23603E-2,-.80054E-2,.19937E-3
STARLINK-5659,2023-013W,2023-02-02T06:00:00.999648,15.90939031,.0030127,42.9997,2.8346,207.0320,101.2900,0,U,55351,999,153,-.23584E-2,-.803459E-2,.20078E-3
STARLINK-5547,2023-013X,2023-02-02T06:00:00.999648,15.90919823,.0029475,42.9997,2.8356,207.1558,100.7303,0,U,55352,999,153,-.23584E-2,-.801204E-2,.19972E-3
STARLINK-5608,2023-013Y,2023-02-02T06:00:00.999648,15.91004988,.003025,42.9997,2.8309,206.7631,103.0045,0,U,55353,999,153,-.2358E-2,-.80637E-2,.20224E-3
STARLINK-5649,2023-013Z,2023-02-02T06:00:00.999648,15.90929542,.0029758,42.9998,2.8350,206.9071,101.2094,0,U,55354,999,153,-.23607E-2,-.803012E-2,.20056E-3
STARLINK-5647,2023-013AA,2023-02-02T06:00:00.999648,15.90968302,.0030545,42.9996,2.8328,206.5679,102.3486,0,U,55355,999,153,-.23574E-2,-.805298E-2,.20168E-3
STARLINK-5083,2023-013AB,2023-02-02T06:00:00.999648,15.90950195,.0029583,42.9997,2.8339,206.7330,101.7963,0,U,55356,999,153,-.23704E-2,-.806764E-2,.20231E-3
STARLINK-5651,2023-013AC,2023-02-02T06:00:00.999648,15.90978147,.0030235,42.9997,2.8323,206.7364,102.3847,0,U,55357,999,153,-.23612E-2,-.806292E-2,.20215E-3
STARLINK-5622,2023-013AD,2023-02-02T06:00:00.999648,15.90961047,.0030115,42.9998,2.8335,206.7561,101.9575,0,U,55358,999,153,-.23712E-2,-.808686E-2,.20321E-3
STARLINK-5641,2023-013AE,2023-02-02T06:00:00.999648,15.90985989,.0030045,42.9997,2.8317,206.8606,102.4732,0,U,55359,999,153,-.23561E-2,-.804463E-2,.20133E-3
STARLINK-5664,2023-013AF,2023-02-02T06:00:00.999648,15.91239421,.0030004,42.9999,2.8169,207.1089,108.0914,0,U,55360,999,153,-.23278E-2,-.805369E-2,.20224E-3
STARLINK-5665,2023-013AG,2023-02-02T06:00:00.999648,15.91032080,.0029974,42.9997,2.8292,206.9559,103.4059,0,U,55361,999,153,-.2352E-2,-.804846E-2,.20159E-3
STARLINK-5574,2023-013AH,2023-02-02T06:00:00.999648,15.91019755,.0029891,42.9998,2.8295,206.8624,103.4572,0,U,55362,999,153,-.23578E-2,-.806111E-2,.20215E-3
STARLINK-5648,2023-013AJ,2023-02-02T06:00:00.999648,15.91044280,.0030045,42.9998,2.8286,206.6107,103.9790,0,U,55363,999,153,-.23675E-2,-.810787E-2,.20433E-3
