STARLINK-5660           
1 55335U 23013E   23033.25001157 -.00805708  20149-3 -23874-2 0  9997
2 55335  42.9997   2.8442 0029820 207.1598  97.3741 15.90776164  1532
STARLINK-5655           
1 55336U 23013F   23033.25001157 -.00765165  20225-3 -13812-2 0  9996
2 55336  42.9995   2.3806 0017992 215.9139 274.6831 16.00288037  1545
STARLINK-5667           
1 55337U 23013G   23033.25001157  .00317457  47424-4  72000-3 0  9998
2 55337  42.9976   2.8095 0043003 205.4201 112.3976 15.94998771  1538
STARLINK-5658           
1 55338U 23013H   23033.25001157 -.00798337  19816-3 -23658-2 0  9998
2 55338  42.9998   2.8440 0029659 207.0726  97.6427 15.90781441  1534
STARLINK-5671           
1 55339U 23013J   23033.25001157 -.00803100  20039-3 -23750-2 0  9996
2 55339  42.9997   2.8415 0029682 207.1872  98.3860 15.90820526  1532
STARLINK-5675           
1 55340U 23013K   23033.25001157 -.00801516  19969-3 -23682-2 0  9991
2 55340  42.9998   2.8413 0029849 207.0567  98.7414 15.90828406  1532
STARLINK-5670           
1 55341U 23013L   23033.25001157 -.00807636  20244-3 -23876-2 0  9994
2 55341  42.9998   2.8421 0029922 206.8297  98.4962 15.90815096  1537
STARLINK-5657           
1 55342U 23013M   23033.25001157 -.00804885  20124-3 -23782-2 0  9991
2 55342  42.9997   2.8407 0029626 207.1346  98.8345 15.90840483  1538
STARLINK-5661           
1 55343U 23013N   23033.25001157 -.00800566  19931-3 -23601-2 0  9998
2 55343  42.9997   2.8395 0030107 206.9278  99.4230 15.90857135  1534
STARLINK-5662           
1 55344U 23013P   23033.25001157 -.00809120  20319-3 -23909-2 0  9997
2 55344  42.9997   2.8401 0029391 207.2126  98.9694 15.90852148  1539
STARLINK-5653           
1 55345U 23013Q   23033.25001157 -.00830982  22499-3 -18577-2 0  9994
2 55345  42.9998   2.5735 0025555 208.6809 202.9100 15.96216534  1537
STARLINK-5631           
1 55346U 23013R   23033.25001157 -.00806798  20216-3 -23776-2 0  9995
2 55346  42.9998   2.8388 0030108 206.7754  99.9902 15.90865203  1534
STARLINK-5663           
1 55347U 23013S   23033.25001157 -.00800712  19947-3 -23512-2 0  9993
2 55347  42.9998   2.8368 0030665 206.6120 100.8145 15.90902320  1530
STARLINK-5609           
1 55348U 23013T   23033.25001157 -.00799798  19900-3 -23581-2 0  9990
2 55348  42.9997   2.8383 0029769 207.1054  99.7498 15.90872949  1532
STARLINK-5666           
1 55349U 23013U   23033.25001157 -.00801768  19991-3 -23569-2 0  9998
2 55349  42.9999   2.8378 0030603 206.7068 100.2916 15.90884909  1530
STARLINK-5668           
1 55350U 23013V   23033.25001157 -.00800540  19937-3 -23603-2 0  9996
2 55350  42.9997   2.8372 0029406 207.1914 100.0595 15.90892164  1531
STARLINK-5659           
1 55351U 23013W   23033.25001157 -.00803459  20078-3 -23584-2 0  9995
2 55351  42.9997   2.8346 0030127 207.0320 101.2900 15.90939031  1533
STARLINK-5547           
1 55352U 23013X   23033.25001157 -.00801204  19972-3 -23584-2 0  9993
2 55352  42.9997   2.8356 0029475 207.1558 100.7303 15.90919823  1531
STARLINK-5608           
1 55353U 23013Y   23033.25001157 -.00806370  20224-3 -23580-2 0  9991
2 55353  42.9997   2.8309 0030250 206.7631 103.0045 15.91004988  1537
STARLINK-5649           
1 55354U 23013Z   23033.25001157 -.00803012  20056-3 -23607-2 0  9995
2 55354  42.9998   2.8350 0029758 206.9071 101.2094 15.90929542  1531
STARLINK-5647           
1 55355U 23013AA  23033.25001157 -.00805298  20168-3 -23574-2 0  9991
2 55355  42.9996   2.8328 0030545 206.5679 102.3486 15.90968302  1535
STARLINK-5083           
1 55356U 23013AB  23033.25001157 -.00806764  20231-3 -23704-2 0  9997
2 55356  42.9997   2.8339 0029583 206.7330 101.7963 15.90950195  1539
STARLINK-5651           
1 55357U 23013AC  23033.25001157 -.00806292  20215-3 -23612-2 0  9994
2 55357  42.9997   2.8323 0030235 206.7364 102.3847 15.90978147  1531
STARLINK-5622           
1 55358U 23013AD  23033.25001157 -.00808686  20321-3 -23712-2 0  9993
2 55358  42.9998   2.8335 0030115 206.7561 101.9575 15.90961047  1536
STARLINK-5641           
1 55359U 23013AE  23033.25001157 -.00804463  20133-3 -23561-2 0  9996
2 55359  42.9997   2.8317 0030045 206.8606 102.4732 15.90985989  1531
STARLINK-5664           
1 55360U 23013AF  23033.25001157 -.00805369  20224-3 -23278-2 0  9990
2 55360  42.9999   2.8169 0030004 207.1089 108.0914 15.91239421  1532
STARLINK-5665           
1 55361U 23013AG  23033.25001157 -.00804846  20159-3 -23520-2 0  9997
2 55361  42.9997   2.8292 0029974 206.9559 103.4059 15.91032080  1532
STARLINK-5574           
1 55362U 23013AH  23033.25001157 -.00806111  20215-3 -23578-2 0  9991
2 55362  42.9998   2.8295 0029891 206.8624 103.4572 15.91019755  1531
STARLINK-5648           
1 55363U 23013AJ  23033.25001157 -.00810787  20433-3 -23675-2 0  9996
2 55363  42.9998   2.8286 0030045 206.6107 103.9790 15.91044280  1537
